From:	Horizons Ephemeris System <horizons@ssd.jpl.nasa.gov>
Sent:	Friday, December 4, 2020 11:07 AM
Subject:	[Horizons] MAJOR BODY #C(usr={90.,-85.,.600^G}@301)_T(301) (1/1)

 Automated mail xmit by MAIL_REQUEST, PID= 4238 Fri Dec  4 09:07:06 2020
++++++++++++++++++++++++++++++++ (part 1 of 1)  +++++++++++++++++++++++++++++++
*******************************************************************************
 Revised: July 31, 2013             Moon / (Earth)                          301
 
 GEOPHYSICAL DATA (updated 2018-Aug-15):
  Vol. mean radius, km  = 1737.53+-0.03    Mass, x10^22 kg       =    7.349
  Radius (gravity), km  = 1738.0           Surface emissivity    =    0.92
  Radius (IAU), km      = 1737.4           GM, km^3/s^2          = 4902.800066
  Density, g/cm^3       =    3.3437        GM 1-sigma, km^3/s^2  =  +-0.0001  
  V(1,0)                =   +0.21          Surface accel., m/s^2 =    1.62
  Earth/Moon mass ratio = 81.3005690769    Farside crust. thick. = ~80 - 90 km
  Mean crustal density  = 2.97+-.07 g/cm^3 Nearside crust. thick.= 58+-8 km 
  Heat flow, Apollo 15  = 3.1+-.6 mW/m^2   Mean angular diameter = 31'05.2"
  Heat flow, Apollo 17  = 2.2+-.5 mW/m^2   Sid. rot. rate, rad/s = 0.0000026617
  Geometric Albedo      = 0.12             Mean solar day        = 29.5306 d
  Obliquity to orbit    = 6.67 deg         Orbit period          = 27.321582 d
  Semi-major axis, a    = 384400 km        Eccentricity          = 0.05490
  Mean motion, rad/s    = 2.6616995x10^-6  Inclination           = 5.145 deg
  Apsidal period        = 3231.50 d        Nodal period          = 6798.38 d
                                 Perihelion  Aphelion    Mean
  Solar Constant (W/m^2)         1414+-7     1323+-7     1368+-7
  Maximum Planetary IR (W/m^2)   1314        1226        1268
  Minimum Planetary IR (W/m^2)      5.2         5.2         5.2
********************************************************************************
 
 
*******************************************************************************
Ephemeris / MAIL_REQUEST Fri Dec  4 09:07:05 2020 Pasadena, USA  / Horizons
*******************************************************************************
Target body name: Moon (301)                      {source: DE431mx}
Center body name: Moon (301)                      {source: DE431mx}
Center-site name: (user defined site below)
*******************************************************************************
Start time      : A.D. 2020-Jan-01 00:00:00.0000 TDB
Stop  time      : A.D. 2039-Jan-01 00:00:00.0000 TDB
Step-size       : 10000 steps
*******************************************************************************
Center geodetic : 90.0000000,-85.000000,0.6000000 {E-lon(deg),Lat(deg),Alt(km)}
Center cylindric: 90.0000000,151.476681,-1731.386 {E-lon(deg),Dxy(km),Dz(km)}
Center pole/equ : IAU_MOON                        {East-longitude positive}
Center radii    : 1737.4 x 1737.4 x 1737.4 km     {Equator, meridian, pole}    
Output units    : KM-S
Output type     : GEOMETRIC cartesian states
Output format   : 3 (position, velocity, LT, range, range-rate)
Reference frame : Ecliptic of J2000.0
*******************************************************************************
JDTDB
   X     Y     Z
   VX    VY    VZ
   LT    RG    RR
*******************************************************************************
$$SOE
2461581.084000001 = A.D. 2027-Jun-24 14:00:57.6001 TDB 
   9.223031649281180E+01  1.724328092916056E+02  1.726963953011018E+03
  -3.730335956384122E-04  1.550034185962574E-04  4.445565674049712E-06
   5.797343974543886E-03  1.738000000000000E+03  9.981147732893019E-21
2461581.778000001 = A.D. 2027-Jun-25 06:40:19.2001 TDB 
   6.921594748081546E+01  1.799074723651201E+02  1.727277179262648E+03
  -3.929772419099683E-04  9.377944263813003E-05  5.979740701934993E-06
   5.797343974543885E-03  1.738000000000000E+03 -6.986803413025112E-21
2461582.472000001 = A.D. 2027-Jun-25 23:19:40.8001 TDB 
   4.530259050361653E+01  1.836310287995712E+02  1.727678014143745E+03
  -4.029547541481746E-04  3.015044479894279E-05  7.361520443824722E-06
   5.797343974543885E-03  1.738000000000000E+03 -3.992459093157208E-21
2461583.166000001 = A.D. 2027-Jun-26 15:59:02.4001 TDB 
   2.109686261262669E+01  1.835072633579419E+02  1.728156244869886E+03
  -4.027073882795355E-04 -3.427565452877149E-05  8.555762275484181E-06
   5.797343974543885E-03  1.738000000000000E+03 -2.994344319867906E-21
2461583.860000001 = A.D. 2027-Jun-27 08:38:24.0001 TDB 
  -2.786802925510351E+00  1.795372490162994E+02  1.728699687610637E+03
  -3.922338436661705E-04 -9.786851197291936E-05  9.531999745253079E-06
   5.797343974543885E-03  1.738000000000000E+03  1.197737727947162E-20
2461584.554000001 = A.D. 2027-Jun-28 01:17:45.6001 TDB 
  -2.574164900702294E+01  1.718194716005517E+02  1.729294491023812E+03
  -3.717910565836884E-04 -1.590161015452153E-04  1.026519644461561E-05
   5.797343974543885E-03  1.738000000000000E+03 -2.395475455894325E-20
2461585.248000001 = A.D. 2027-Jun-28 17:57:07.2001 TDB 
  -4.718394289722373E+01  1.605475120476362E+02  1.729925481605490E+03
  -3.418885938867969E-04 -2.161652752287846E-04  1.073638456418945E-05
   5.797343974543885E-03  1.738000000000000E+03  2.195852501236464E-20
2461585.942000001 = A.D. 2027-Jun-29 10:36:28.8001 TDB 
  -6.656779729194858E+01  1.460053266979767E+02  1.730576543507832E+03
  -3.032766977735908E-04 -2.678611532996790E-04  1.093317341404660E-05
   5.797343974543884E-03  1.738000000000000E+03 -1.996229546578604E-21
2461586.636000001 = A.D. 2027-Jun-30 03:15:50.4001 TDB 
  -8.339908892143299E+01  1.285602256037317E+02  1.731231024548657E+03
  -2.569281873383340E-04 -3.127843515591339E-04  1.085011173734249E-05
   5.797343974543882E-03  1.738000000000000E+03 -2.195852501236465E-20
2461587.330000001 = A.D. 2027-Jun-30 19:55:12.0001 TDB 
  -9.724811647570610E+01  1.086537078307674E+02  1.731872159143554E+03
  -2.040145815138145E-04 -3.497850748262967E-04  1.048888709367837E-05
   5.797343974543885E-03  1.738000000000000E+03  1.197737727947162E-20
2461588.024000001 = A.D. 2027-Jul-01 12:34:33.6001 TDB 
  -1.077606662559885E+02  8.679036960417284E+01  1.732483497916225E+03
  -1.458769665753920E-04 -3.779131551602547E-04  9.858346890815050E-06
   5.797343974543885E-03  1.738000000000000E+03 -7.984918186314416E-21
2461588.718000001 = A.D. 2027-Jul-02 05:13:55.2001 TDB 
  -1.146671899604346E+02  6.352515421616488E+01  1.733049332918250E+03
  -8.399228441671048E-05 -3.964431909611767E-04  8.974329418047256E-06
   5.797343974543885E-03  1.738000000000000E+03 -2.295663978565394E-20
2461589.412000001 = A.D. 2027-Jul-02 21:53:16.8001 TDB 
  -1.177898438826604E+02  3.944926016404736E+01  1.733555106868717E+03
  -1.993585979576456E-05 -4.048940497252209E-04  7.859299562783955E-06
   5.797343974543884E-03  1.738000000000000E+03 -3.193967274525767E-20
2461590.106000001 = A.D. 2027-Jul-03 14:32:38.4001 TDB 
  -1.170471917156531E+02  1.517506428525985E+01  1.733987794748111E+03
   4.465889004677823E-05 -4.030421319344903E-04  6.541792255542058E-06
   5.797343974543883E-03  1.738000000000000E+03  2.794721365210046E-20
2461590.800000001 = A.D. 2027-Jul-04 07:12:00.0001 TDB 
  -1.124564329279889E+02 -8.679551901949367E+00  1.734336246542721E+03
   1.081425172038621E-04 -3.909279539746352E-04  5.055676074136790E-06
   5.797343974543885E-03  1.738000000000000E+03 -2.195852501236464E-20
2461591.494000001 = A.D. 2027-Jul-04 23:51:21.6001 TDB 
  -1.041330838105186E+02 -3.150706330181436E+01  1.734591480959770E+03
   1.688922552071512E-04 -3.688557901878405E-04  3.439258581186972E-06
   5.797343974543885E-03  1.738000000000000E+03 -1.646889375927348E-20
2461592.188000001 = A.D. 2027-Jul-05 16:30:43.2001 TDB 
  -9.228810695785313E+01 -5.272593074178144E+01  1.734746921467667E+03
   2.253542180182076E-04 -3.373863126795032E-04  1.734262665679186E-06
   5.797343974543884E-03  1.738000000000000E+03  4.591327957130790E-20
2461592.882000001 = A.D. 2027-Jul-06 09:10:04.8001 TDB 
  -7.722255506894049E+01 -7.179558234416731E+01  1.734798567945134E+03
   2.760839168814062E-04 -2.973223753382318E-04 -1.529146197515254E-08
   5.797343974543884E-03  1.738000000000000E+03 -1.221325987237789E-20
2461593.576000001 = A.D. 2027-Jul-07 01:49:26.4001 TDB 
  -5.931986423823126E+01 -8.823034531025121E+01  1.734745099394488E+03
   3.197839596323995E-04 -2.496882975146071E-04 -1.764261296805419E-06
   5.797343974543884E-03  1.738000000000000E+03 -3.992459093157208E-21
2461594.270000001 = A.D. 2027-Jul-07 18:28:48.0001 TDB 
  -3.903599798395065E+01 -1.016119540626214E+02  1.734587905426812E+03
   3.553378705836565E-04 -1.957032040311547E-04 -3.467576684570850E-06
   5.797343974543884E-03  1.738000000000000E+03 -1.097926250618232E-20
2461594.964000001 = A.D. 2027-Jul-08 11:08:09.6001 TDB 
  -1.688770376094768E+01 -1.116002997066462E+02  1.734331046417341E+03
   3.818390810530358E-04 -1.367491626292716E-04 -5.081418721695867E-06
   5.797343974543884E-03  1.738000000000000E+03 -6.986803413025114E-21
2461595.658000001 = A.D. 2027-Jul-09 03:47:31.2001 TDB 
   6.560803570223175E+00 -1.179421351301456E+02  1.733981144250841E+03
   3.986142870329284E-04 -7.433501914602571E-05 -6.564351030153709E-06
   5.797343974543884E-03  1.738000000000000E+03  6.986803413025112E-21
2461596.352000001 = A.D. 2027-Jul-09 20:26:52.8001 TDB 
   3.071237377498235E+01 -1.204775080184132E+02  1.733547207363786E+03
   4.052405452054804E-04 -1.005695755448124E-05 -7.878375748594863E-06
   5.797343974543885E-03  1.738000000000000E+03  0.000000000000000E+00
2461597.046000001 = A.D. 2027-Jul-10 13:06:14.4001 TDB 
   5.495227930665499E+01 -1.191437585260353E+02  1.733040395317805E+03
   4.015556735157614E-04  5.444309883731678E-05 -8.989890915999521E-06
   5.797343974543885E-03  1.738000000000000E+03 -6.986803413025112E-21
